DELTA 2 R/B(1)          
1 20453U 90008B   25338.54323500  .00067541  00000+0  11112-2 0  9994
2 20453  35.6065  73.4266 0112268 103.6245 257.7018 15.44307993911365
COSMOS 2058             
1 20465U 90010A   25338.54306301  .00008975  00000+0  54504-3 0  9999
2 20465  82.4633 141.0934 0008464 307.9947  52.0518 15.10350238927870
SL-14 R/B               
1 20466U 90010B   25338.58382282  .00000848  00000+0  10018-3 0  9999
2 20466  82.5022 356.7075 0018340 251.9369 107.9848 14.83459835914385
SL-14 R/B               
1 20511U 90018B   25338.44271719  .00000945  00000+0  11589-3 0  9997
2 20511  82.5203 312.1201 0017583  49.2085 311.0652 14.82033325908470
HST                     
1 20580U 90037B   25338.30113914  .00015652  00000+0  55018-3 0  9997
2 20580  28.4702 329.9177 0002049 143.2197 216.8539 15.27866357758701
SL-16 R/B               
1 20625U 90046B   25338.61628215  .00000286  00000+0  17228-3 0  9994
2 20625  70.9983 137.5815 0011882  88.3007 271.9477 14.14999230834946
COSMOS 2084             
1 20663U 90055A   25338.59473931  .00006443  00000+0  46104-3 0  9992
2 20663  62.7912 299.7438 0032982 173.6524 186.5001 15.04937934922009
SL-6 R/B(2)             
1 20666U 90055D   25338.65073902  .00004678  00000+0  35963-3 0  9995
2 20666  62.7832 216.8997 0011983 302.4757  57.5183 15.03020293923909
SL-8 R/B                
1 20775U 90078B   25338.51454310  .00039210  00000+0  12142-2 0  9995
2 20775  82.9042 336.6707 0374652 333.5676  24.6841 14.85422869795151
SL-8 R/B                
1 21088U 91006B   25338.49293314  .00000121  00000+0  10611-3 0  9996
2 21088  82.9430 240.8465 0021488 304.2424 229.5156 13.77488683750960
OKEAN-3                 
1 21397U 91039A   25338.63231277  .00007269  00000+0  52283-3 0  9992
2 21397  82.5189  68.8944 0013017 295.3039  64.6838 15.04036700850744
COSMOS 2151             
1 21422U 91042A   25338.61642205  .00003934  00000+0  31683-3 0  9996
2 21422  82.4955 175.3310 0013334  26.6028 333.5877 14.99638931848946
