CCSDS_OMM_VERS = 2.0
CREATION_DATE  = 
ORIGINATOR     = 

OBJECT_NAME    = DELTA 2 R/B(1)
OBJECT_ID      = 1990-008B
CENTER_NAME    = EARTH
REF_FRAME      = TEME
TIME_SYSTEM    = UTC
MEAN_ELEMENT_THEORY = SGP/SGP4

EPOCH          = 2025-12-04T13:02:15.504000
MEAN_MOTION    = 15.44307993
ECCENTRICITY   = .01122681
INCLINATION    = 35.6065
RA_OF_ASC_NODE = 73.4266
ARG_OF_PERICENTER = 103.6245
MEAN_ANOMALY   = 257.7018

EPHEMERIS_TYPE = 0
CLASSIFICATION_TYPE = U
NORAD_CAT_ID   = 20453
ELEMENT_SET_NO = 999
REV_AT_EPOCH   = 91136
BSTAR          = .11111864E-2
MEAN_MOTION_DOT = .67541E-3
MEAN_MOTION_DDOT = 0

CCSDS_OMM_VERS = 2.0
CREATION_DATE  = 
ORIGINATOR     = 

OBJECT_NAME    = COSMOS 2058
OBJECT_ID      = 1990-010A
CENTER_NAME    = EARTH
REF_FRAME      = TEME
TIME_SYSTEM    = UTC
MEAN_ELEMENT_THEORY = SGP/SGP4

EPOCH          = 2025-12-04T13:02:00.644064
MEAN_MOTION    = 15.10350238
ECCENTRICITY   = .00084645
INCLINATION    = 82.4633
RA_OF_ASC_NODE = 141.0934
ARG_OF_PERICENTER = 307.9947
MEAN_ANOMALY   = 52.0518

EPHEMERIS_TYPE = 0
CLASSIFICATION_TYPE = U
NORAD_CAT_ID   = 20465
ELEMENT_SET_NO = 999
REV_AT_EPOCH   = 92787
BSTAR          = .54503623E-3
MEAN_MOTION_DOT = .8975E-4
MEAN_MOTION_DDOT = 0

CCSDS_OMM_VERS = 2.0
CREATION_DATE  = 
ORIGINATOR     = 

OBJECT_NAME    = SL-14 R/B
OBJECT_ID      = 1990-010B
CENTER_NAME    = EARTH
REF_FRAME      = TEME
TIME_SYSTEM    = UTC
MEAN_ELEMENT_THEORY = SGP/SGP4

EPOCH          = 2025-12-04T14:00:42.291648
MEAN_MOTION    = 14.83459835
ECCENTRICITY   = .00183409
INCLINATION    = 82.5022
RA_OF_ASC_NODE = 356.7075
ARG_OF_PERICENTER = 251.9369
MEAN_ANOMALY   = 107.9848

EPHEMERIS_TYPE = 0
CLASSIFICATION_TYPE = U
NORAD_CAT_ID   = 20466
ELEMENT_SET_NO = 999
REV_AT_EPOCH   = 91438
BSTAR          = .10017959E-3
MEAN_MOTION_DOT = .848E-5
MEAN_MOTION_DDOT = 0

CCSDS_OMM_VERS = 2.0
CREATION_DATE  = 
ORIGINATOR     = 

OBJECT_NAME    = SL-14 R/B
OBJECT_ID      = 1990-018B
CENTER_NAME    = EARTH
REF_FRAME      = TEME
TIME_SYSTEM    = UTC
MEAN_ELEMENT_THEORY = SGP/SGP4

EPOCH          = 2025-12-04T10:37:30.765216
MEAN_MOTION    = 14.82033325
ECCENTRICITY   = .00175833
INCLINATION    = 82.5203
RA_OF_ASC_NODE = 312.1201
ARG_OF_PERICENTER = 49.2085
MEAN_ANOMALY   = 311.0652

EPHEMERIS_TYPE = 0
CLASSIFICATION_TYPE = U
NORAD_CAT_ID   = 20511
ELEMENT_SET_NO = 999
REV_AT_EPOCH   = 90847
BSTAR          = .11588641E-3
MEAN_MOTION_DOT = .945E-5
MEAN_MOTION_DDOT = 0

CCSDS_OMM_VERS = 2.0
CREATION_DATE  = 
ORIGINATOR     = 

OBJECT_NAME    = HST
OBJECT_ID      = 1990-037B
CENTER_NAME    = EARTH
REF_FRAME      = TEME
TIME_SYSTEM    = UTC
MEAN_ELEMENT_THEORY = SGP/SGP4

EPOCH          = 2025-12-04T07:13:38.421696
MEAN_MOTION    = 15.27866357
ECCENTRICITY   = .00020491
INCLINATION    = 28.4702
RA_OF_ASC_NODE = 329.9177
ARG_OF_PERICENTER = 143.2197
MEAN_ANOMALY   = 216.8539

EPHEMERIS_TYPE = 0
CLASSIFICATION_TYPE = U
NORAD_CAT_ID   = 20580
ELEMENT_SET_NO = 999
REV_AT_EPOCH   = 75870
BSTAR          = .55017975E-3
MEAN_MOTION_DOT = .15652E-3
MEAN_MOTION_DDOT = 0

CCSDS_OMM_VERS = 2.0
CREATION_DATE  = 
ORIGINATOR     = 

OBJECT_NAME    = SL-16 R/B
OBJECT_ID      = 1990-046B
CENTER_NAME    = EARTH
REF_FRAME      = TEME
TIME_SYSTEM    = UTC
MEAN_ELEMENT_THEORY = SGP/SGP4

EPOCH          = 2025-12-04T14:47:26.777760
MEAN_MOTION    = 14.14999230
ECCENTRICITY   = .00118825
INCLINATION    = 70.9983
RA_OF_ASC_NODE = 137.5815
ARG_OF_PERICENTER = 88.3007
MEAN_ANOMALY   = 271.9477

EPHEMERIS_TYPE = 0
CLASSIFICATION_TYPE = U
NORAD_CAT_ID   = 20625
ELEMENT_SET_NO = 999
REV_AT_EPOCH   = 83494
BSTAR          = .17227612E-3
MEAN_MOTION_DOT = .286E-5
MEAN_MOTION_DDOT = 0

CCSDS_OMM_VERS = 2.0
CREATION_DATE  = 
ORIGINATOR     = 

OBJECT_NAME    = COSMOS 2084
OBJECT_ID      = 1990-055A
CENTER_NAME    = EARTH
REF_FRAME      = TEME
TIME_SYSTEM    = UTC
MEAN_ELEMENT_THEORY = SGP/SGP4

EPOCH          = 2025-12-04T14:16:25.476384
MEAN_MOTION    = 15.04937934
ECCENTRICITY   = .00329828
INCLINATION    = 62.7912
RA_OF_ASC_NODE = 299.7438
ARG_OF_PERICENTER = 173.6524
MEAN_ANOMALY   = 186.5001

EPHEMERIS_TYPE = 0
CLASSIFICATION_TYPE = U
NORAD_CAT_ID   = 20663
ELEMENT_SET_NO = 999
REV_AT_EPOCH   = 92200
BSTAR          = .46103558E-3
MEAN_MOTION_DOT = .6443E-4
MEAN_MOTION_DDOT = 0

CCSDS_OMM_VERS = 2.0
CREATION_DATE  = 
ORIGINATOR     = 

OBJECT_NAME    = SL-6 R/B(2)
OBJECT_ID      = 1990-055D
CENTER_NAME    = EARTH
REF_FRAME      = TEME
TIME_SYSTEM    = UTC
MEAN_ELEMENT_THEORY = SGP/SGP4

EPOCH          = 2025-12-04T15:37:03.851328
MEAN_MOTION    = 15.03020293
ECCENTRICITY   = .0011983
INCLINATION    = 62.7832
RA_OF_ASC_NODE = 216.8997
ARG_OF_PERICENTER = 302.4757
MEAN_ANOMALY   = 57.5183

EPHEMERIS_TYPE = 0
CLASSIFICATION_TYPE = U
NORAD_CAT_ID   = 20666
ELEMENT_SET_NO = 999
REV_AT_EPOCH   = 92390
BSTAR          = .35962913E-3
MEAN_MOTION_DOT = .4678E-4
MEAN_MOTION_DDOT = 0

CCSDS_OMM_VERS = 2.0
CREATION_DATE  = 
ORIGINATOR     = 

OBJECT_NAME    = SL-8 R/B
OBJECT_ID      = 1990-078B
CENTER_NAME    = EARTH
REF_FRAME      = TEME
TIME_SYSTEM    = UTC
MEAN_ELEMENT_THEORY = SGP/SGP4

EPOCH          = 2025-12-04T12:20:56.523840
MEAN_MOTION    = 14.85422869
ECCENTRICITY   = .03746522
INCLINATION    = 82.9042
RA_OF_ASC_NODE = 336.6707
ARG_OF_PERICENTER = 333.5676
MEAN_ANOMALY   = 24.6841

EPHEMERIS_TYPE = 0
CLASSIFICATION_TYPE = U
NORAD_CAT_ID   = 20775
ELEMENT_SET_NO = 999
REV_AT_EPOCH   = 79515
BSTAR          = .12141981E-2
MEAN_MOTION_DOT = .3921E-3
MEAN_MOTION_DDOT = 0

CCSDS_OMM_VERS = 2.0
CREATION_DATE  = 
ORIGINATOR     = 

OBJECT_NAME    = SL-8 R/B
OBJECT_ID      = 1991-006B
CENTER_NAME    = EARTH
REF_FRAME      = TEME
TIME_SYSTEM    = UTC
MEAN_ELEMENT_THEORY = SGP/SGP4

EPOCH          = 2025-12-04T11:49:49.423296
MEAN_MOTION    = 13.77488683
ECCENTRICITY   = .00214887
INCLINATION    = 82.9430
RA_OF_ASC_NODE = 240.8465
ARG_OF_PERICENTER = 304.2424
MEAN_ANOMALY   = 229.5156

EPHEMERIS_TYPE = 0
CLASSIFICATION_TYPE = U
NORAD_CAT_ID   = 21088
ELEMENT_SET_NO = 999
REV_AT_EPOCH   = 75096
BSTAR          = .10610846E-3
MEAN_MOTION_DOT = .121E-5
MEAN_MOTION_DDOT = 0

CCSDS_OMM_VERS = 2.0
CREATION_DATE  = 
ORIGINATOR     = 

OBJECT_NAME    = OKEAN-3
OBJECT_ID      = 1991-039A
CENTER_NAME    = EARTH
REF_FRAME      = TEME
TIME_SYSTEM    = UTC
MEAN_ELEMENT_THEORY = SGP/SGP4

EPOCH          = 2025-12-04T15:10:31.823328
MEAN_MOTION    = 15.04036700
ECCENTRICITY   = .00130173
INCLINATION    = 82.5189
RA_OF_ASC_NODE = 68.8944
ARG_OF_PERICENTER = 295.3039
MEAN_ANOMALY   = 64.6838

EPHEMERIS_TYPE = 0
CLASSIFICATION_TYPE = U
NORAD_CAT_ID   = 21397
ELEMENT_SET_NO = 999
REV_AT_EPOCH   = 85074
BSTAR          = .52283103E-3
MEAN_MOTION_DOT = .7269E-4
MEAN_MOTION_DDOT = 0

CCSDS_OMM_VERS = 2.0
CREATION_DATE  = 
ORIGINATOR     = 

OBJECT_NAME    = COSMOS 2151
OBJECT_ID      = 1991-042A
CENTER_NAME    = EARTH
REF_FRAME      = TEME
TIME_SYSTEM    = UTC
MEAN_ELEMENT_THEORY = SGP/SGP4

EPOCH          = 2025-12-04T14:47:38.865120
MEAN_MOTION    = 14.99638931
ECCENTRICITY   = .00133348
INCLINATION    = 82.4955
RA_OF_ASC_NODE = 175.3310
ARG_OF_PERICENTER = 26.6028
MEAN_ANOMALY   = 333.5877

EPHEMERIS_TYPE = 0
CLASSIFICATION_TYPE = U
NORAD_CAT_ID   = 21422
ELEMENT_SET_NO = 999
REV_AT_EPOCH   = 84894
BSTAR          = .31683423E-3
MEAN_MOTION_DOT = .3934E-4
MEAN_MOTION_DDOT = 0

